$$SOE
2461295.500000000, A.D. 2026-Sep-12 00:00:00.0000, -2.418937223839253E+08, -1.331408882932470E+08, -3.972353056382959E+07,
2461302.500000000, A.D. 2026-Sep-19 00:00:00.0000, -2.357196766684847E+08, -1.444431158745338E+08, -4.365471853399067E+07,
2461309.500000000, A.D. 2026-Sep-26 00:00:00.0000, -2.290237715015832E+08, -1.554256040225921E+08, -4.748927466787608E+07,
2461316.500000000, A.D. 2026-Oct-03 00:00:00.0000, -2.218259378707656E+08, -1.660675102618369E+08, -5.121976905712020E+07,
2461323.500000000, A.D. 2026-Oct-10 00:00:00.0000, -2.141469363582092E+08, -1.763492506400287E+08, -5.483917778308260E+07,
2461330.500000000, A.D. 2026-Oct-17 00:00:00.0000, -2.060082605302954E+08, -1.862525126414206E+08, -5.834088930085285E+07,
2461337.500000000, A.D. 2026-Oct-24 00:00:00.0000, -1.974320429797815E+08, -1.957602612777036E+08, -6.171870844894423E+07,
2461344.500000000, A.D. 2026-Oct-31 00:00:00.0000, -1.884409644277947E+08, -2.048567389680740E+08, -6.496685827158612E+07,
2461351.500000000, A.D. 2026-Nov-07 00:00:00.0000, -1.790581659673247E+08, -2.135274596974860E+08, -6.807997985891052E+07,
2461358.500000000, A.D. 2026-Nov-14 00:00:00.0000, -1.693071645863853E+08, -2.217591971356547E+08, -7.105313033517796E+07,
2461365.500000000, A.D. 2026-Nov-21 00:00:00.0000, -1.592117740427599E+08, -2.295399666015815E+08, -7.388177895747918E+07,
2461372.500000000, A.D. 2026-Nov-28 00:00:00.0000, -1.487960322747559E+08, -2.368590044400035E+08, -7.656180166198330E+07,
2461379.500000000, A.D. 2026-Dec-05 00:00:00.0000, -1.380841318514839E+08, -2.437067460127933E+08, -7.908947462466612E+07,
2461386.500000000, A.D. 2026-Dec-12 00:00:00.0000, -1.271003533641135E+08, -2.500747997187296E+08, -8.146146677339020E+07,
2461393.500000000, A.D. 2026-Dec-19 00:00:00.0000, -1.158690036573739E+08, -2.559559175296313E+08, -8.367483124431771E+07,
2461400.500000000, A.D. 2026-Dec-26 00:00:00.0000, -1.044143590075085E+08, -2.613439633737332E+08, -8.572699599656649E+07,
2461407.500000000, A.D. 2027-Jan-02 00:00:00.0000, -9.276061289230423E+07, -2.662338799874848E+08, -8.761575377084963E+07,
2461414.500000000, A.D. 2027-Jan-09 00:00:00.0000, -8.093182812103717E+07, -2.706216546148746E+08, -8.933925153637996E+07,
2461421.500000000, A.D. 2027-Jan-16 00:00:00.0000, -6.895189314648999E+07, -2.745042839149173E+08, -9.089597955605604E+07,
2461428.500000000, A.D. 2027-Jan-23 00:00:00.0000, -5.684448235109484E+07, -2.778797384533782E+08, -9.228476019533788E+07,
2461435.500000000, A.D. 2027-Jan-30 00:00:00.0000, -4.463301994050896E+07, -2.807469271275297E+08, -9.350473660179219E+07,
2461442.500000000, A.D. 2027-Feb-06 00:00:00.0000, -3.234064682596438E+07, -2.831056614511139E+08, -9.455536136055858E+07,
2461449.500000000, A.D. 2027-Feb-13 00:00:00.0000, -1.999019075102088E+07, -2.849566187152112E+08, -9.543638506721315E+07,
2461456.500000000, A.D. 2027-Feb-20 00:00:00.0000, -7.604141814311690E+06, -2.863013050197743E+08, -9.614784473864253E+07,
2461463.500000000, A.D. 2027-Feb-27 00:00:00.0000, 4.795368225823972E+06, -2.871420215657026E+08, -9.669005251687698E+07,
2461470.500000000, A.D. 2027-Mar-06 00:00:00.0000, 1.718658610157003E+07, -2.874818324402324E+08, -9.706358484443216E+07,
2461477.500000000, A.D. 2027-Mar-13 00:00:00.0000, 2.954815525426490E+07, -2.873245319791982E+08, -9.726927184849799E+07,
2461484.500000000, A.D. 2027-Mar-20 00:00:00.0000, 4.185913119971035E+07, -2.866746126493754E+08, -9.730818694061577E+07,
2461491.500000000, A.D. 2027-Mar-27 00:00:00.0000, 5.409899444250525E+07, -2.855372340853327E+08, -9.718163672682348E+07,
2461498.500000000, A.D. 2027-Apr-03 00:00:00.0000, 6.624766133547759E+07, -2.839181933907499E+08, -9.689115127077988E+07,
2461505.500000000, A.D. 2027-Apr-10 00:00:00.0000, 7.828549313584873E+07, -2.818238967203303E+08, -9.643847472361422E+07,
2461512.500000000, A.D. 2027-Apr-17 00:00:00.0000, 9.019330347273071E+07, -2.792613321791559E+08, -9.582555633128674E+07,
2461519.500000000, A.D. 2027-Apr-24 00:00:00.0000, 1.019523644964529E+08, -2.762380441193789E+08, -9.505454184543385E+07,
2461526.500000000, A.D. 2027-May-01 00:00:00.0000, 1.135444121876003E+08, -2.727621088248781E+08, -9.412776538139826E+07,
2461533.500000000, A.D. 2027-May-08 00:00:00.0000, 1.249516512919796E+08, -2.688421108480428E+08, -9.304774170436570E+07,
2461540.500000000, A.D. 2027-May-15 00:00:00.0000, 1.361567585280543E+08, -2.644871190435218E+08, -9.181715873173524E+07,
2461547.500000000, A.D. 2027-May-22 00:00:00.0000, 1.471428826375737E+08, -2.597066648717127E+08, -9.043887031393151E+07,
2461554.500000000, A.D. 2027-May-29 00:00:00.0000, 1.578936447663237E+08, -2.545107244099617E+08, -8.891588971142149E+07,
2461561.500000000, A.D. 2027-Jun-05 00:00:00.0000, 1.683931401868291E+08, -2.489097009069411E+08, -8.725138358371264E+07,
2461568.500000000, A.D. 2027-Jun-12 00:00:00.0000, 1.786259394744522E+08, -2.429144074129441E+08, -8.544866626094280E+07,
2461575.500000000, A.D. 2027-Jun-19 00:00:00.0000, 1.885770889165823E+08, -2.365360503806234E+08, -8.351119433246614E+07,
2461582.500000000, A.D. 2027-Jun-26 00:00:00.0000, 1.982321105381182E+08, -2.297862144531035E+08, -8.144256158664817E+07,
2461589.500000000, A.D. 2027-Jul-03 00:00:00.0000, 2.075770019726042E+08, -2.226768483843713E+08, -7.924649429980272E+07,
2461596.500000000, A.D. 2027-Jul-10 00:00:00.0000, 2.165982363059549E+08, -2.152202520346257E+08, -7.692684686246273E+07,
2461603.500000000, A.D. 2027-Jul-17 00:00:00.0000, 2.252827620112092E+08, -2.074290644277796E+08, -7.448759773330671E+07,
2461610.500000000, A.D. 2027-Jul-24 00:00:00.0000, 2.336180032071302E+08, -1.993162528772305E+08, -7.193284572260162E+07,
2461617.500000000, A.D. 2027-Jul-31 00:00:00.0000, 2.415918607280976E+08, -1.908951028866137E+08, -6.926680660704188E+07,
2461624.500000000, A.D. 2027-Aug-07 00:00:00.0000, 2.491927138782685E+08, -1.821792076221260E+08, -6.649380994804326E+07,
2461631.500000000, A.D. 2027-Aug-14 00:00:00.0000, 2.564094206315201E+08, -1.731824571598971E+08, -6.361829590461653E+07,
2461638.500000000, A.D. 2027-Aug-21 00:00:00.0000, 2.632313169457566E+08, -1.639190308136497E+08, -6.064481234880026E+07,
2461645.500000000, A.D. 2027-Aug-28 00:00:00.0000, 2.696482186697929E+08, -1.544033912716443E+08, -5.757801247485764E+07,
2461652.500000000, A.D. 2027-Sep-04 00:00:00.0000, 2.756504249104766E+08, -1.446502779712415E+08, -5.442265256622916E+07,
2461659.500000000, A.D. 2027-Sep-11 00:00:00.0000, 2.812287215130152E+08, -1.346747003020688E+08, -5.118358982545218E+07,
2461666.500000000, A.D. 2027-Sep-18 00:00:00.0000, 2.863743848352779E+08, -1.244919312167579E+08, -4.786578031394325E+07,
2461673.500000000, A.D. 2027-Sep-25 00:00:00.0000, 2.910791860918189E+08, -1.141175012572068E+08, -4.447427701211419E+07,
2461680.500000000, A.D. 2027-Oct-02 00:00:00.0000, 2.953353963870699E+08, -1.035671929015412E+08, -4.101422798704891E+07,
2461687.500000000, A.D. 2027-Oct-09 00:00:00.0000, 2.991357925002041E+08, -9.285703517013080E+07, -3.749087465033376E+07,
2461694.500000000, A.D. 2027-Oct-16 00:00:00.0000, 3.024736635184274E+08, -8.200329847867298E+07, -3.390955009333082E+07,
2461701.500000000, A.D. 2027-Oct-23 00:00:00.0000, 3.053428186025473E+08, -7.102248967270488E+07, -3.027567749821629E+07,
2461708.500000000, A.D. 2027-Oct-30 00:00:00.0000, 3.077375962781780E+08, -5.993134655144367E+07, -2.659476858159073E+07,
2461715.500000000, A.D. 2027-Nov-06 00:00:00.0000, 3.096528741162277E+08, -4.874683066673002E+07, -2.287242184446266E+07,
2461722.500000000, A.D. 2027-Nov-13 00:00:00.0000, 3.110840768447226E+08, -3.748612039415953E+07, -1.911432058861156E+07,
2461729.500000000, A.D. 2027-Nov-20 00:00:00.0000, 3.120271858043286E+08, -2.616660637901431E+07, -1.532623111437939E+07,
2461736.500000000, A.D. 2027-Nov-27 00:00:00.0000, 3.124787513697526E+08, -1.480588629804238E+07, -1.151400097505281E+07,
2461743.500000000, A.D. 2027-Dec-04 00:00:00.0000, 3.124359063213623E+08, -3.421757925347451E+06, -7.683556996076037E+06,
2461750.500000000, A.D. 2027-Dec-11 00:00:00.0000, 3.118963796224284E+08, 7.967788632606109E+06, -3.840903054483697E+06,
2461757.500000000, A.D. 2027-Dec-18 00:00:00.0000, 3.108585108778749E+08, 1.934457929486476E+07, 7.882363465785049E+03,
2461764.500000000, A.D. 2027-Dec-25 00:00:00.0000, 3.093212656206910E+08, 3.069026505662188E+07, 3.856648849502748E+06,
2461771.500000000, A.D. 2028-Jan-01 00:00:00.0000, 3.072842514504222E+08, 4.198633184901008E+07, 7.699177041635081E+06,
$$EOE